     3.04           N: NAVIGATION DATA  G: GPS              RINEX VERSION / TYPE
SimGEN V8.01.00     Spirent             20230219 100000 UTC PGM / RUN BY / DATE
GPSA   4.3000D-09  1.2000D-08 -3.4000D-08 -8.8000D-08 K 01  IONOSPHERIC CORR
GPSB   8.0000D+04  6.3000D+04 -8.3000D+04 -4.1000D+05 K 01  IONOSPHERIC CORR
GPUT  1.8958627521D-06-7.993605777D-15 286720 2250          TIME SYSTEM CORR
    18                                                      LEAP SECONDS
                                                            END OF HEADER
G15 2023 02 19 10 00 00 1.478807098470D-05 3.296918293930D-12 0.000000000000D+00
     0.000000000000D+00-1.592500000000D+02 4.753769442150D-09 1.804248265220D+00
    -8.305534720420D-06 1.474368129860D-02 1.107528805730D-05 5.153693397520D+03
     3.600000000000D+04-1.303851604460D-07-3.192598076177D-01-3.315508365630D-07
     9.322899896659D-01 1.550312500000D+02 1.179821566160D+00-8.248915028990D-09
    -1.082187934610D-10 1.000000000000D+00 2.250000000000D+03 0.000000000000D+00
     1.200000000000D+00 0.000000000000D+00-1.071020960810D-08 0.000000000000D+00
     3.600000000000D+04 4.000000000000D+00 0.000000000000D+00 0.000000000000D+00
G16 2023 02 19 10 00 00-5.193817196412D-04 1.818989403550D-12 0.000000000000D+00
     0.000000000000D+00-4.509375000000D+01 4.953420615570D-09-2.700586586884D+00
    -2.566725015640D-06 1.341177860740D-02 5.867332220080D-06 5.153547113420D+03
     3.600000000000D+04 1.285225152970D-07 2.001072639317D+00-3.091990947720D-07
     9.657113817321D-01 2.684687500000D+02 7.719254383640D-01-8.149982336620D-09
    -4.021596087050D-10 1.000000000000D+00 2.250000000000D+03 0.000000000000D+00
     1.200000000000D+00 0.000000000000D+00-1.024454832080D-08 0.000000000000D+00
     3.600000000000D+04 4.000000000000D+00 0.000000000000D+00 0.000000000000D+00
G17 2023 02 19 10 00 00 7.009767286942D-04 2.273736754430D-12 0.000000000000D+00
     0.000000000000D+00 6.056250000000D+01 3.832659645660D-09 2.736198810927D+00
     3.285706043240D-06 1.364741497670D-02 1.356564462190D-05 5.153723695760D+03
     3.600000000000D+04 2.607703208920D-07 3.021444131894D+00-7.450580596920D-08
     9.758911043868D-01 1.197187500000D+02-1.419055795630D+00-7.365306794590D-09
    -4.968064082670D-10 1.000000000000D+00 2.250000000000D+03 0.000000000000D+00
     1.200000000000D+00 0.000000000000D+00-1.117587089540D-08 0.000000000000D+00
     3.600000000000D+04 4.000000000000D+00 0.000000000000D+00 0.000000000000D+00
G18 2023 02 19 10 00 00-1.470024872105D-04-1.591615728100D-11 0.000000000000D+00
     0.000000000000D+00 1.403437500000D+02 4.343752363290D-09 6.757382799294D-01
     7.268041372300D-06 2.972936490550D-03 5.578622221950D-06 5.153692792890D+03
     3.600000000000D+04-2.421438694000D-08-2.258291194617D+00-4.470348358150D-08
     9.733073451294D-01 2.739062500000D+02-3.114352305570D+00-8.238200296970D-09
     3.078699668770D-10 1.000000000000D+00 2.250000000000D+03 0.000000000000D+00
     1.200000000000D+00 0.000000000000D+00-8.381903171540D-09 0.000000000000D+00
     3.600000000000D+04 4.000000000000D+00 0.000000000000D+00 0.000000000000D+00
G19 2023 02 19 10 00 00 2.797382840075D-04 5.115907697470D-12 0.000000000000D+00
     0.000000000000D+00 7.765625000000D+01 3.854089109710D-09-1.405115760895D+00
     3.978610038760D-06 9.104784112420D-03 1.410953700540D-05 5.153615165710D+03
     3.600000000000D+04-1.825392246250D-07 3.066041429118D+00-9.685754776000D-08
     9.749020945281D-01 1.169375000000D+02 2.243833703680D+00-7.694963383250D-09
    -3.421571093600D-10 1.000000000000D+00 2.250000000000D+03 0.000000000000D+00
     1.200000000000D+00 0.000000000000D+00-1.536682248120D-08 0.000000000000D+00
     3.600000000000D+04 4.000000000000D+00 0.000000000000D+00 0.000000000000D+00
G20 2023 02 19 10 00 00 4.497801346592D-04-2.387423592150D-12 0.000000000000D+00
     0.000000000000D+00-4.025000000000D+01 5.243789853470D-09 1.432947782443D+00
    -2.047047019010D-06 4.439873388040D-03-4.228204488750D-07 5.153749126430D+03
     3.600000000000D+04-1.136213541030D-07-1.394886118611D+00 6.891787052160D-08
     9.467717330260D-01 3.826562500000D+02-2.911751170100D+00-8.876084010240D-09
    -2.635824078370D-10 1.000000000000D+00 2.250000000000D+03 0.000000000000D+00
     1.200000000000D+00 0.000000000000D+00-8.381903171540D-09 0.000000000000D+00
     3.600000000000D+04 4.000000000000D+00 0.000000000000D+00 0.000000000000D+00
G21 2023 02 19 10 00 00 1.540784287502D-04 2.273736754430D-13 0.000000000000D+00
     0.000000000000D+00 1.650312500000D+02 4.407683597710D-09 2.719066974040D+00
     8.670613169670D-06 2.486811182460D-02 6.463378667830D-06 5.153660640720D+03
     3.600000000000D+04 2.048909664150D-07-2.361668162737D+00 4.954636096950D-07
     9.614994592261D-01 2.505625000000D+02-8.118156097560D-01-7.947116743600D-09
     2.300095808220D-10 1.000000000000D+00 2.250000000000D+03 0.000000000000D+00
     1.200000000000D+00 0.000000000000D+00-1.024454832080D-08 0.000000000000D+00
     3.600000000000D+04 4.000000000000D+00 0.000000000000D+00 0.000000000000D+00
G22 2023 02 19 10 00 00 4.301074059182D-04 7.617018127350D-12 0.000000000000D+00
     0.000000000000D+00-1.092187500000D+02 3.897662353280D-09 2.523692120646D+00
    -5.584210157390D-06 1.396254682910D-02 1.276656985280D-05 5.153608900070D+03
     3.600000000000D+04 1.620501279830D-07-9.916967632369D-02-1.080334186550D-07
     9.628522220486D-01 1.328750000000D+02-1.826749830070D+00-7.463168013760D-09
     1.246480492340D-10 1.000000000000D+00 2.250000000000D+03 0.000000000000D+00
     1.200000000000D+00 3.100000000000D+01-7.916241884230D-09 0.000000000000D+00
     3.600000000000D+04 4.000000000000D+00 0.000000000000D+00 0.000000000000D+00
G23 2023 02 19 10 00 00 6.823240255467D-06 1.705302565820D-12 0.000000000000D+00
     0.000000000000D+00-6.540625000000D+01 4.636621705330D-09-3.552230148171D-01
    -3.548339009280D-06 3.007889143190D-03 6.221234798430D-07 5.153645668030D+03
     3.600000000000D+04 1.508742570880D-07-1.258196886576D+00 5.401670932770D-08
     9.721979137053D-01 3.755937500000D+02-3.098476311880D+00-8.560356573210D-09
    -3.375140588150D-10 1.000000000000D+00 2.250000000000D+03 0.000000000000D+00
     1.200000000000D+00 0.000000000000D+00-8.381903171540D-09 0.000000000000D+00
     3.600000000000D+04 4.000000000000D+00 0.000000000000D+00 0.000000000000D+00
G24 2023 02 19 10 00 00-8.009745943128D-05-1.591615728100D-11 0.000000000000D+00
     0.000000000000D+00 3.650000000000D+01 5.295577724930D-09 8.315765671799D-01
     1.899898052220D-06 1.371494564230D-02 9.788200259210D-06 5.153660585400D+03
     3.600000000000D+04-7.264316082000D-08 7.787642635428D-01 1.192092895510D-07
     9.340516458173D-01 1.775625000000D+02 8.855581502290D-01-8.560713730950D-09
     6.718136980230D-10 1.000000000000D+00 2.250000000000D+03 0.000000000000D+00
     1.200000000000D+00 0.000000000000D+00 2.328306436540D-09 0.000000000000D+00
     3.600000000000D+04 4.000000000000D+00 0.000000000000D+00 0.000000000000D+00
G25 2023 02 19 10 00 00 4.213804786561D-04 3.183231456210D-12 0.000000000000D+00
     0.000000000000D+00-2.631250000000D+01 5.422368720570D-09-9.411453568352D-01
    -1.149252057080D-06 1.117339474150D-02 4.936009645460D-06 5.153759506230D+03
     3.600000000000D+04 6.332993507380D-08 1.901514265331D+00 2.253800630570D-07
     9.535489491531D-01 2.828125000000D+02 1.032434086710D+00-8.566428254690D-09
    -3.253706958530D-10 1.000000000000D+00 2.250000000000D+03 0.000000000000D+00
     1.200000000000D+00 0.000000000000D+00 5.587935447690D-09 0.000000000000D+00
     3.600000000000D+04 4.000000000000D+00 0.000000000000D+00 0.000000000000D+00
G26 2023 02 19 10 00 00 2.416169263597D-04 2.273736754430D-13 0.000000000000D+00
     0.000000000000D+00-2.350000000000D+01 5.790241186790D-09-1.722943431044D+00
    -1.115724444390D-06 7.868248037990D-03 4.025176167490D-06 5.153629194260D+03
     3.600000000000D+04 1.359730958940D-07 1.847624978165D+00 5.401670932770D-08
     9.343135133596D-01 2.846875000000D+02 4.520574889350D-01-8.806438252070D-09
    -1.985797002130D-10 1.000000000000D+00 2.250000000000D+03 0.000000000000D+00
     1.200000000000D+00 0.000000000000D+00 6.984919309620D-09 0.000000000000D+00
     3.600000000000D+04 4.000000000000D+00 0.000000000000D+00 0.000000000000D+00
G27 2023 02 19 10 00 00 9.880038123808D-05-8.981260180010D-12 0.000000000000D+00
     0.000000000000D+00 3.137500000000D+01 4.025881979860D-09 2.788269322365D+00
     1.555308699610D-06 1.135373883880D-02 1.371279358860D-05 5.153669860840D+03
     3.600000000000D+04-8.568167686460D-08 2.956487472523D+00-1.490116119380D-07
     9.692191035003D-01 1.182812500000D+02 6.990675771190D-01-7.515670200690D-09
    -4.425184326690D-10 1.000000000000D+00 2.250000000000D+03 0.000000000000D+00
     1.200000000000D+00 0.000000000000D+00 1.862645149230D-09 0.000000000000D+00
     3.600000000000D+04 4.000000000000D+00 0.000000000000D+00 0.000000000000D+00
G28 2023 02 19 10 00 00 1.835340663090D-05 1.421085471520D-11 0.000000000000D+00
     0.000000000000D+00 4.028125000000D+01 4.539831959370D-09-1.637105737939D+00
     2.263113856320D-06 1.004000660030D-03 9.221956133840D-06 5.153625946050D+03
     3.600000000000D+04-1.862645149230D-08 8.293137868762D-01-5.029141902920D-08
     9.615951569725D-01 2.004375000000D+02 1.689535696540D+00-7.998547457320D-09
     7.964617472570D-10 1.000000000000D+00 2.250000000000D+03 0.000000000000D+00
     1.200000000000D+00 0.000000000000D+00-1.396983861920D-09 0.000000000000D+00
     3.600000000000D+04 4.000000000000D+00 0.000000000000D+00 0.000000000000D+00
